ONEWEB-0067             
1 45425U 20020B   26085.32527004  .00075022  00000+0  20824+0 0  9998
2 45425  87.8916  37.4484 0001251 269.1255  90.9730 13.11972668291879
ONEWEB-0080             
1 45426U 20020C   26086.00002315 -.00043704  00000+0 -12390+0 0  9991
2 45426  87.8895  37.3935 0002213  79.9779 221.5993 13.11436113  5194
ONEWEB-0090             
1 45427U 20020D   26085.88874423 -.00000524  00000+0 -15144-2 0  9990
2 45427  87.8897  37.4244 0001926  80.2413 279.8932 13.11417199291886
ONEWEB-0061             
1 45428U 20020E   26085.92069045  .00000492  00000+0  13522-2 0  9992
2 45428  87.8896  37.4042 0001900  80.8999 279.2344 13.11417461291848
ONEWEB-0081             
1 45429U 20020F   26085.90216445 -.00000223  00000+0 -66471-3 0  9995
2 45429  87.8892  37.4231 0001750  86.1008 274.0320 13.11416506291956
ONEWEB-0069             
1 45430U 20020G   26085.89113406 -.00000554  00000+0 -15996-2 0  9990
2 45430  87.8898  37.4196 0001812  82.3378 277.7956 13.11415690291881
ONEWEB-0031             
1 45431U 20020H   26085.93947806  .00000395  00000+0  10777-2 0  9998
2 45431  87.8886  37.4267 0002050  79.3777 280.7582 13.11416180291875
ONEWEB-0027             
1 45432U 20020J   26085.76325706  .00000074  00000+0  15781-3 0  9994
2 45432  87.9188  22.2107 0002085  70.0456 290.0900 13.17651596295507
ONEWEB-0064             
1 45433U 20020K   26085.40370576  .00000340  00000+0  92456-3 0  9991
2 45433  87.8885  37.5236 0002016  77.1183 283.0170 13.11415987291831
ONEWEB-0018             
1 45434U 20020L   26085.89369455 -.00000475  00000+0 -13747-2 0  9995
2 45434  87.8895  37.4243 0002095  90.6729 269.4639 13.11419310291846
ONEWEB-0083             
1 45435U 20020M   26085.88437358 -.00000483  00000+0 -13981-2 0  9992
2 45435  87.8902  37.4150 0001959  80.7255 279.4095 13.11416182291880
ONEWEB-0095             
1 45436U 20020N   26085.87517240 -.00000146  00000+0 -44757-3 0  9993
2 45436  87.8895  37.4248 0001706  55.9232 304.2058 13.11413625291884
ONEWEB-0092             
1 45437U 20020P   26085.92337799  .00000517  00000+0  14228-2 0  9998
2 45437  87.8899  37.4152 0001579  73.1023 287.0279 13.11417716292004
