[
    {
      "OBJECT_NAME": "ONEWEB-0067",
      "OBJECT_ID": "2020-020B",
      "EPOCH": "2026-03-26T07:48:23.331456",
      "MEAN_MOTION": 13.11972668,
      "ECCENTRICITY": 0.0001251,
      "INCLINATION": 87.8916,
      "RA_OF_ASC_NODE": 37.4484,
      "ARG_OF_PERICENTER": 269.1255,
      "MEAN_ANOMALY": 90.973,
      "EPHEMERIS_TYPE": 0,
      "CLASSIFICATION_TYPE": "U",
      "NORAD_CAT_ID": 45425,
      "ELEMENT_SET_NO": 999,
      "REV_AT_EPOCH": 29187,
      "BSTAR": 0.20823943,
      "MEAN_MOTION_DOT": 0.00075022,
      "MEAN_MOTION_DDOT": 0
    },
    {
      "OBJECT_NAME": "ONEWEB-0080",
      "OBJECT_ID": "2020-020C",
      "EPOCH": "2026-03-27T00:00:02.000160",
      "MEAN_MOTION": 13.11436113,
      "ECCENTRICITY": 0.00022133,
      "INCLINATION": 87.8895,
      "RA_OF_ASC_NODE": 37.3935,
      "ARG_OF_PERICENTER": 79.9779,
      "MEAN_ANOMALY": 221.5993,
      "EPHEMERIS_TYPE": 0,
      "CLASSIFICATION_TYPE": "U",
      "NORAD_CAT_ID": 45426,
      "ELEMENT_SET_NO": 999,
      "REV_AT_EPOCH": 519,
      "BSTAR": -0.12389783,
      "MEAN_MOTION_DOT": -0.00043704,
      "MEAN_MOTION_DDOT": 0
    },
    {
      "OBJECT_NAME": "ONEWEB-0090",
      "OBJECT_ID": "2020-020D",
      "EPOCH": "2026-03-26T21:19:47.501472",
      "MEAN_MOTION": 13.11417199,
      "ECCENTRICITY": 0.00019264,
      "INCLINATION": 87.8897,
      "RA_OF_ASC_NODE": 37.4244,
      "ARG_OF_PERICENTER": 80.2413,
      "MEAN_ANOMALY": 279.8932,
      "EPHEMERIS_TYPE": 0,
      "CLASSIFICATION_TYPE": "U",
      "NORAD_CAT_ID": 45427,
      "ELEMENT_SET_NO": 999,
      "REV_AT_EPOCH": 29188,
      "BSTAR": -0.0015143548,
      "MEAN_MOTION_DOT": -0.00000524,
      "MEAN_MOTION_DDOT": 0
    },
    {
      "OBJECT_NAME": "ONEWEB-0061",
      "OBJECT_ID": "2020-020E",
      "EPOCH": "2026-03-26T22:05:47.654880",
      "MEAN_MOTION": 13.11417461,
      "ECCENTRICITY": 0.00019001,
      "INCLINATION": 87.8896,
      "RA_OF_ASC_NODE": 37.4042,
      "ARG_OF_PERICENTER": 80.8999,
      "MEAN_ANOMALY": 279.2344,
      "EPHEMERIS_TYPE": 0,
      "CLASSIFICATION_TYPE": "U",
      "NORAD_CAT_ID": 45428,
      "ELEMENT_SET_NO": 999,
      "REV_AT_EPOCH": 29184,
      "BSTAR": 0.0013522024,
      "MEAN_MOTION_DOT": 0.00000492,
      "MEAN_MOTION_DDOT": 0
    },
    {
      "OBJECT_NAME": "ONEWEB-0081",
      "OBJECT_ID": "2020-020F",
      "EPOCH": "2026-03-26T21:39:07.008480",
      "MEAN_MOTION": 13.11416506,
      "ECCENTRICITY": 0.00017509,
      "INCLINATION": 87.8892,
      "RA_OF_ASC_NODE": 37.4231,
      "ARG_OF_PERICENTER": 86.1008,
      "MEAN_ANOMALY": 274.032,
      "EPHEMERIS_TYPE": 0,
      "CLASSIFICATION_TYPE": "U",
      "NORAD_CAT_ID": 45429,
      "ELEMENT_SET_NO": 999,
      "REV_AT_EPOCH": 29195,
      "BSTAR": -0.00066470968,
      "MEAN_MOTION_DOT": -0.00000223,
      "MEAN_MOTION_DDOT": 0
    },
    {
      "OBJECT_NAME": "ONEWEB-0069",
      "OBJECT_ID": "2020-020G",
      "EPOCH": "2026-03-26T21:23:13.982784",
      "MEAN_MOTION": 13.1141569,
      "ECCENTRICITY": 0.00018128,
      "INCLINATION": 87.8898,
      "RA_OF_ASC_NODE": 37.4196,
      "ARG_OF_PERICENTER": 82.3378,
      "MEAN_ANOMALY": 277.7956,
      "EPHEMERIS_TYPE": 0,
      "CLASSIFICATION_TYPE": "U",
      "NORAD_CAT_ID": 45430,
      "ELEMENT_SET_NO": 999,
      "REV_AT_EPOCH": 29188,
      "BSTAR": -0.0015996144,
      "MEAN_MOTION_DOT": -0.00000554,
      "MEAN_MOTION_DDOT": 0
    },
    {
      "OBJECT_NAME": "ONEWEB-0031",
      "OBJECT_ID": "2020-020H",
      "EPOCH": "2026-03-26T22:32:50.904384",
      "MEAN_MOTION": 13.1141618,
      "ECCENTRICITY": 0.00020504,
      "INCLINATION": 87.8886,
      "RA_OF_ASC_NODE": 37.4267,
      "ARG_OF_PERICENTER": 79.3777,
      "MEAN_ANOMALY": 280.7582,
      "EPHEMERIS_TYPE": 0,
      "CLASSIFICATION_TYPE": "U",
      "NORAD_CAT_ID": 45431,
      "ELEMENT_SET_NO": 999,
      "REV_AT_EPOCH": 29187,
      "BSTAR": 0.0010776569,
      "MEAN_MOTION_DOT": 0.00000395,
      "MEAN_MOTION_DDOT": 0
    },
    {
      "OBJECT_NAME": "ONEWEB-0027",
      "OBJECT_ID": "2020-020J",
      "EPOCH": "2026-03-26T18:19:05.409984",
      "MEAN_MOTION": 13.17651596,
      "ECCENTRICITY": 0.00020853,
      "INCLINATION": 87.9188,
      "RA_OF_ASC_NODE": 22.2107,
      "ARG_OF_PERICENTER": 70.0456,
      "MEAN_ANOMALY": 290.09,
      "EPHEMERIS_TYPE": 0,
      "CLASSIFICATION_TYPE": "U",
      "NORAD_CAT_ID": 45432,
      "ELEMENT_SET_NO": 999,
      "REV_AT_EPOCH": 29550,
      "BSTAR": 0.00015781168,
      "MEAN_MOTION_DOT": 7.4e-7,
      "MEAN_MOTION_DDOT": 0
    },
    {
      "OBJECT_NAME": "ONEWEB-0064",
      "OBJECT_ID": "2020-020K",
      "EPOCH": "2026-03-26T09:41:20.177664",
      "MEAN_MOTION": 13.11415987,
      "ECCENTRICITY": 0.00020165,
      "INCLINATION": 87.8885,
      "RA_OF_ASC_NODE": 37.5236,
      "ARG_OF_PERICENTER": 77.1183,
      "MEAN_ANOMALY": 283.017,
      "EPHEMERIS_TYPE": 0,
      "CLASSIFICATION_TYPE": "U",
      "NORAD_CAT_ID": 45433,
      "ELEMENT_SET_NO": 999,
      "REV_AT_EPOCH": 29183,
      "BSTAR": 0.00092456449,
      "MEAN_MOTION_DOT": 0.0000034,
      "MEAN_MOTION_DDOT": 0
    },
    {
      "OBJECT_NAME": "ONEWEB-0018",
      "OBJECT_ID": "2020-020L",
      "EPOCH": "2026-03-26T21:26:55.209120",
      "MEAN_MOTION": 13.1141931,
      "ECCENTRICITY": 0.00020954,
      "INCLINATION": 87.8895,
      "RA_OF_ASC_NODE": 37.4243,
      "ARG_OF_PERICENTER": 90.6729,
      "MEAN_ANOMALY": 269.4639,
      "EPHEMERIS_TYPE": 0,
      "CLASSIFICATION_TYPE": "U",
      "NORAD_CAT_ID": 45434,
      "ELEMENT_SET_NO": 999,
      "REV_AT_EPOCH": 29184,
      "BSTAR": -0.0013747496,
      "MEAN_MOTION_DOT": -0.00000475,
      "MEAN_MOTION_DDOT": 0
    },
    {
      "OBJECT_NAME": "ONEWEB-0083",
      "OBJECT_ID": "2020-020M",
      "EPOCH": "2026-03-26T21:13:29.877312",
      "MEAN_MOTION": 13.11416182,
      "ECCENTRICITY": 0.00019598,
      "INCLINATION": 87.8902,
      "RA_OF_ASC_NODE": 37.415,
      "ARG_OF_PERICENTER": 80.7255,
      "MEAN_ANOMALY": 279.4095,
      "EPHEMERIS_TYPE": 0,
      "CLASSIFICATION_TYPE": "U",
      "NORAD_CAT_ID": 45435,
      "ELEMENT_SET_NO": 999,
      "REV_AT_EPOCH": 29188,
      "BSTAR": -0.001398129,
      "MEAN_MOTION_DOT": -0.00000483,
      "MEAN_MOTION_DDOT": 0
    },
    {
      "OBJECT_NAME": "ONEWEB-0095",
      "OBJECT_ID": "2020-020N",
      "EPOCH": "2026-03-26T21:00:14.895360",
      "MEAN_MOTION": 13.11413625,
      "ECCENTRICITY": 0.00017069,
      "INCLINATION": 87.8895,
      "RA_OF_ASC_NODE": 37.4248,
      "ARG_OF_PERICENTER": 55.9232,
      "MEAN_ANOMALY": 304.2058,
      "EPHEMERIS_TYPE": 0,
      "CLASSIFICATION_TYPE": "U",
      "NORAD_CAT_ID": 45436,
      "ELEMENT_SET_NO": 999,
      "REV_AT_EPOCH": 29188,
      "BSTAR": -0.00044757324,
      "MEAN_MOTION_DOT": -0.00000146,
      "MEAN_MOTION_DDOT": 0
    },
    {
      "OBJECT_NAME": "ONEWEB-0092",
      "OBJECT_ID": "2020-020P",
      "EPOCH": "2026-03-26T22:09:39.858336",
      "MEAN_MOTION": 13.11417716,
      "ECCENTRICITY": 0.00015798,
      "INCLINATION": 87.8899,
      "RA_OF_ASC_NODE": 37.4152,
      "ARG_OF_PERICENTER": 73.1023,
      "MEAN_ANOMALY": 287.0279,
      "EPHEMERIS_TYPE": 0,
      "CLASSIFICATION_TYPE": "U",
      "NORAD_CAT_ID": 45437,
      "ELEMENT_SET_NO": 999,
      "REV_AT_EPOCH": 29200,
      "BSTAR": 0.001422751,
      "MEAN_MOTION_DOT": 0.00000517,
      "MEAN_MOTION_DDOT": 0
    }
  ]
